QIANFAN-57              
1 62787U 25016C   25266.02077060  .00000069  00000+0  87620-4 0  9998
2 62787  88.9766 111.5359 0002316  65.2086 294.9306 13.50965540 36303
QIANFAN-58              
1 62788U 25016D   25267.99163480  .00000053  00000+0  63918-4 0  9995
2 62788  88.9733 111.1883 0012854 204.7878 155.2657 13.50972287 36611
QIANFAN-59              
1 62789U 25016E   25268.01629391  .00000068  00000+0  86387-4 0  9999
2 62789  88.9771 111.2402 0013097 208.6208 151.4226 13.50976626 36613
QIANFAN-60              
1 62790U 25016F   25267.98180870  .00000065  00000+0  80094-4 0  9996
2 62790  88.9739 111.2324 0014396 206.0894 153.9534 13.52523872 36597
QIANFAN-61              
1 62791U 25016G   25268.00804633  .00000051  00000+0  60694-4 0  9990
2 62791  88.9805 111.3374 0013701 204.7057 155.3439 13.50971886 36616
QIANFAN-62              
1 62792U 25016H   25268.01219537  .00000040  00000+0  42998-4 0  9990
2 62792  88.9751 111.2480 0015069 205.6315 154.4091 13.50965842 36608
QIANFAN-63              
1 62793U 25016J   25266.77739156  .00000086  00000+0  11768-3 0  9996
2 62793  88.9760 111.3217 0014609 215.7404 144.2770 13.49732499 36472
QIANFAN-64              
1 62794U 25016K   25266.00459885  .00000081  00000+0  10493-3 0  9990
2 62794  88.9747 111.3867 0012822 207.8155 152.2313 13.52421057 36368
